start=new Date('2021-12-11T00:00:00.000Z').valueOf();
sats=[{"NORAD_CAT_ID":"46141","ECCENTRICITY":"0.00013050","FILE":"3237005","EPOCH":"2021-12-10T13:31:54.405696","ARG_OF_PERICENTER":"72.6237","RA_OF_ASC_NODE":"35.4080","TLE_LINE2":"2 46141  53.0550  35.4080 0001305  72.6237 287.4894 15.06399482 72987","OBJECT_TYPE":"PAYLOAD","LAUNCH_DATE":"2020-08-18","ELEMENT_SET_NO":"999","SEMIMAJOR_AXIS":"6925.350","CLASSIFICATION_TYPE":"U","EPHEMERIS_TYPE":"0","SITE":"AFETR","MEAN_MOTION":"15.06399482","OBJECT_NAME":"STARLINK-1596","RCS_SIZE":"LARGE","MEAN_MOTION_DDOT":"0.0000000000000","APOAPSIS":"548.119","PERIOD":"95.592","REF_FRAME":"TEME","OBJECT_ID":"2020-057AA","CENTER_NAME":"EARTH","COUNTRY_CODE":"US","INCLINATION":"53.0550","GP_ID":"191455952","DECAY_DATE":null,"MEAN_MOTION_DOT":"0.00000842","MEAN_ELEMENT_THEORY":"SGP4","TLE_LINE1":"1 46141U 20057AA  21344.56382414  .00000842  00000-0  75411-4 0  9993","REV_AT_EPOCH":"7298","TIME_SYSTEM":"UTC","BSTAR":"0.00007541100000","MEAN_ANOMALY":"287.4894","PERIAPSIS":"546.311"},{"MEAN_MOTION_DDOT":"0.0000000000000","RCS_SIZE":"LARGE","APOAPSIS":"548.048","MEAN_MOTION":"15.06394224","OBJECT_NAME":"STARLINK-1597","CLASSIFICATION_TYPE":"U","EPHEMERIS_TYPE":"0","SITE":"AFETR","ELEMENT_SET_NO":"999","SEMIMAJOR_AXIS":"6925.366","OBJECT_TYPE":"PAYLOAD","TLE_LINE2":"2 46142  53.0571  75.0319 0001179  77.3615 282.7505 15.06394224 72433","LAUNCH_DATE":"2020-08-18","RA_OF_ASC_NODE":"75.0319","EPOCH":"2021-12-10T15:33:59.992128","FILE":"3237005","ARG_OF_PERICENTER":"77.3615","ECCENTRICITY":"0.00011790","NORAD_CAT_ID":"46142","PERIAPSIS":"546.415","MEAN_ANOMALY":"282.7505","REV_AT_EPOCH":"7243","TIME_SYSTEM":"UTC","BSTAR":"-0.00000714790000","MEAN_MOTION_DOT":"-0.00000388","TLE_LINE1":"1 46142U 20057AB  21344.64861102 -.00000388  00000-0 -71479-5 0  9997","MEAN_ELEMENT_THEORY":"SGP4","DECAY_DATE":null,"GP_ID":"191456703","INCLINATION":"53.0571","PERIOD":"95.593","REF_FRAME":"TEME","COUNTRY_CODE":"US","CENTER_NAME":"EARTH","OBJECT_ID":"2020-057AB"},{"PERIAPSIS":"377.261","REV_AT_EPOCH":"7299","TIME_SYSTEM":"UTC","BSTAR":"0.00113560000000","MEAN_ANOMALY":"44.2654","DECAY_DATE":null,"MEAN_MOTION_DOT":"0.00105632","MEAN_ELEMENT_THEORY":"SGP4","TLE_LINE1":"1 46143U 20057AC  21344.88452292  .00105632  00000-0  11356-2 0  9991","REF_FRAME":"TEME","PERIOD":"92.133","CENTER_NAME":"EARTH","OBJECT_ID":"2020-057AC","COUNTRY_CODE":"US","GP_ID":"191456954","INCLINATION":"53.0562","MEAN_MOTION":"15.62951729","OBJECT_NAME":"STARLINK-1599","RCS_SIZE":"LARGE","MEAN_MOTION_DDOT":"0.0000000000000","APOAPSIS":"381.015","CLASSIFICATION_TYPE":"U","SITE":"AFETR","EPHEMERIS_TYPE":"0","RA_OF_ASC_NODE":"37.0301","LAUNCH_DATE":"2020-08-18","TLE_LINE2":"2 46143  53.0562  37.0301 0002778 315.8138  44.2654 15.62951729 72997","OBJECT_TYPE":"PAYLOAD","ELEMENT_SET_NO":"999","SEMIMAJOR_AXIS":"6757.273","NORAD_CAT_ID":"46143","ECCENTRICITY":"0.00027780","FILE":"3237005","EPOCH":"2021-12-10T21:13:42.780288","ARG_OF_PERICENTER":"315.8138"},{"MEAN_MOTION":"15.06394701","OBJECT_NAME":"STARLINK-1606","RCS_SIZE":"LARGE","MEAN_MOTION_DDOT":"0.0000000000000","APOAPSIS":"548.122","CLASSIFICATION_TYPE":"U","EPHEMERIS_TYPE":"0","SITE":"AFETR","RA_OF_ASC_NODE":"55.1846","LAUNCH_DATE":"2020-08-18","TLE_LINE2":"2 46144  53.0560  55.1846 0001289  71.8278 288.2851 15.06394701 60963","OBJECT_TYPE":"PAYLOAD","ELEMENT_SET_NO":"999","SEMIMAJOR_AXIS":"6925.365","NORAD_CAT_ID":"46144","ECCENTRICITY":"0.00012890","FILE":"3237005","EPOCH":"2021-12-10T14:43:33.834720","ARG_OF_PERICENTER":"71.8278","PERIAPSIS":"546.337","REV_AT_EPOCH":"6096","TIME_SYSTEM":"UTC","BSTAR":"0.00008564700000","MEAN_ANOMALY":"288.2851","DECAY_DATE":null,"MEAN_MOTION_DOT":"0.00000994","MEAN_ELEMENT_THEORY":"SGP4","TLE_LINE1":"1 46144U 20057AD  21344.61358605  .00000994  00000-0  85647-4 0  9997","PERIOD":"95.592","REF_FRAME":"TEME","OBJECT_ID":"2020-057AD","CENTER_NAME":"EARTH","COUNTRY_CODE":"US","GP_ID":"191457705","INCLINATION":"53.0560"},{"RCS_SIZE":"LARGE","MEAN_MOTION_DDOT":"0.0000000000000","APOAPSIS":"548.105","MEAN_MOTION":"15.06394774","OBJECT_NAME":"STARLINK-1608","CLASSIFICATION_TYPE":"U","EPHEMERIS_TYPE":"0","SITE":"AFETR","ELEMENT_SET_NO":"999","SEMIMAJOR_AXIS":"6925.365","RA_OF_ASC_NODE":"74.3807","TLE_LINE2":"2 46146  53.0542  74.3807 0001264  95.8981 264.2152 15.06394774 72461","LAUNCH_DATE":"2020-08-18","OBJECT_TYPE":"PAYLOAD","FILE":"3237005","EPOCH":"2021-12-10T19:00:59.389920","ARG_OF_PERICENTER":"95.8981","NORAD_CAT_ID":"46146","ECCENTRICITY":"0.00012640","PERIAPSIS":"546.354","MEAN_ANOMALY":"264.2152","REV_AT_EPOCH":"7246","TIME_SYSTEM":"UTC","BSTAR":"0.00008954000000","MEAN_MOTION_DOT":"0.00001052","MEAN_ELEMENT_THEORY":"SGP4","TLE_LINE1":"1 46146U 20057AF  21344.79235405  .00001052  00000-0  89540-4 0  9992","DECAY_DATE":null,"INCLINATION":"53.0542","GP_ID":"191456453","PERIOD":"95.592","REF_FRAME":"TEME","CENTER_NAME":"EARTH","OBJECT_ID":"2020-057AF","COUNTRY_CODE":"US"},{"REF_FRAME":"TEME","PERIOD":"95.592","COUNTRY_CODE":"US","CENTER_NAME":"EARTH","OBJECT_ID":"2020-057AG","GP_ID":"191456203","INCLINATION":"53.0537","DECAY_DATE":null,"MEAN_MOTION_DOT":"0.00001114","TLE_LINE1":"1 46147U 20057AG  21344.64122635  .00001114  00000-0  93674-4 0  9999","MEAN_ELEMENT_THEORY":"SGP4","REV_AT_EPOCH":"7369","TIME_SYSTEM":"UTC","BSTAR":"0.00009367400000","MEAN_ANOMALY":"276.9701","PERIAPSIS":"546.456","ECCENTRICITY":"0.00010960","NORAD_CAT_ID":"46147","EPOCH":"2021-12-10T15:23:21.956640","FILE":"3237005","ARG_OF_PERICENTER":"83.1413","TLE_LINE2":"2 46147  53.0537  75.0535 0001096  83.1413 276.9701 15.06399565 73694","OBJECT_TYPE":"PAYLOAD","LAUNCH_DATE":"2020-08-18","RA_OF_ASC_NODE":"75.0535","ELEMENT_SET_NO":"999","SEMIMAJOR_AXIS":"6925.350","CLASSIFICATION_TYPE":"U","EPHEMERIS_TYPE":"0","SITE":"AFETR","MEAN_MOTION":"15.06399565","OBJECT_NAME":"STARLINK-1611","MEAN_MOTION_DDOT":"0.0000000000000","RCS_SIZE":"LARGE","APOAPSIS":"547.974"},{"MEAN_ANOMALY":"288.6965","REV_AT_EPOCH":"7275","TIME_SYSTEM":"UTC","BSTAR":"0.00016290000000","PERIAPSIS":"546.267","GP_ID":"191457455","INCLINATION":"53.0548","REF_FRAME":"TEME","PERIOD":"95.592","CENTER_NAME":"EARTH","OBJECT_ID":"2020-057AH","COUNTRY_CODE":"US","MEAN_MOTION_DOT":"0.00002146","MEAN_ELEMENT_THEORY":"SGP4","TLE_LINE1":"1 46148U 20057AH  21344.91214472  .00002146  00000-0  16290-3 0  9995","DECAY_DATE":null,"CLASSIFICATION_TYPE":"U","SITE":"AFETR","EPHEMERIS_TYPE":"0","RCS_SIZE":"LARGE","MEAN_MOTION_DDOT":"0.0000000000000","APOAPSIS":"548.140","MEAN_MOTION":"15.06403379","OBJECT_NAME":"STARLINK-1616","FILE":"3237005","EPOCH":"2021-12-10T21:53:29.303808","ARG_OF_PERICENTER":"71.4170","NORAD_CAT_ID":"46148","ECCENTRICITY":"0.00013520","ELEMENT_SET_NO":"999","SEMIMAJOR_AXIS":"6925.338","RA_OF_ASC_NODE":"53.8306","TLE_LINE2":"2 46148  53.0548  53.8306 0001352  71.4170 288.6965 15.06403379 72759","LAUNCH_DATE":"2020-08-18","OBJECT_TYPE":"PAYLOAD"},{"DECAY_DATE":null,"MEAN_ELEMENT_THEORY":"SGP4","TLE_LINE1":"1 46149U 20057AJ  21344.92689705  .00001197  00000-0  99277-4 0  9994","MEAN_MOTION_DOT":"0.00001197","CENTER_NAME":"EARTH","OBJECT_ID":"2020-057AJ","COUNTRY_CODE":"US","REF_FRAME":"TEME","PERIOD":"95.592","GP_ID":"191457205","INCLINATION":"53.0554","PERIAPSIS":"546.150","BSTAR":"0.00009927700000","REV_AT_EPOCH":"7403","TIME_SYSTEM":"UTC","MEAN_ANOMALY":"304.1723","RA_OF_ASC_NODE":"53.7794","LAUNCH_DATE":"2020-08-18","TLE_LINE2":"2 46149  53.0554  53.7794 0001553  55.9413 304.1723 15.06395974 74037","OBJECT_TYPE":"PAYLOAD","SEMIMAJOR_AXIS":"6925.361","ELEMENT_SET_NO":"999","NORAD_CAT_ID":"46149","ECCENTRICITY":"0.00015530","ARG_OF_PERICENTER":"55.9413","FILE":"3237005","EPOCH":"2021-12-10T22:14:43.905120","OBJECT_NAME":"STARLINK-1620","MEAN_MOTION":"15.06395974","APOAPSIS":"548.301","RCS_SIZE":"LARGE","MEAN_MOTION_DDOT":"0.0000000000000","SITE":"AFETR","EPHEMERIS_TYPE":"0","CLASSIFICATION_TYPE":"U"},{"DECAY_DATE":null,"TLE_LINE1":"1 46150U 20057AK  21344.72232669 -.00000477  00000-0 -13130-4 0  9993","MEAN_ELEMENT_THEORY":"SGP4","MEAN_MOTION_DOT":"-0.00000477","COUNTRY_CODE":"US","CENTER_NAME":"EARTH","OBJECT_ID":"2020-057AK","PERIOD":"95.592","REF_FRAME":"TEME","INCLINATION":"53.0554","GP_ID":"191455953","PERIAPSIS":"546.343","BSTAR":"-0.00001313000000","REV_AT_EPOCH":"7245","TIME_SYSTEM":"UTC","MEAN_ANOMALY":"274.7162","TLE_LINE2":"2 46150  53.0554  74.6857 0001279  85.3973 274.7162 15.06394962 72453","OBJECT_TYPE":"PAYLOAD","LAUNCH_DATE":"2020-08-18","RA_OF_ASC_NODE":"74.6857","SEMIMAJOR_AXIS":"6925.364","ELEMENT_SET_NO":"999","ECCENTRICITY":"0.00012790","NORAD_CAT_ID":"46150","ARG_OF_PERICENTER":"85.3973","EPOCH":"2021-12-10T17:20:09.026016","FILE":"3237005","OBJECT_NAME":"STARLINK-1629","MEAN_MOTION":"15.06394962","APOAPSIS":"548.115","MEAN_MOTION_DDOT":"0.0000000000000","RCS_SIZE":"LARGE","EPHEMERIS_TYPE":"0","SITE":"AFETR","CLASSIFICATION_TYPE":"U"},{"ELEMENT_SET_NO":"999","SEMIMAJOR_AXIS":"6925.369","RA_OF_ASC_NODE":"53.9106","TLE_LINE2":"2 46151  53.0551  53.9106 0001413  72.1586 287.9557 15.06393295 72757","LAUNCH_DATE":"2020-08-18","OBJECT_TYPE":"PAYLOAD","FILE":"3237005","EPOCH":"2021-12-10T21:32:16.033056","ARG_OF_PERICENTER":"72.1586","NORAD_CAT_ID":"46151","ECCENTRICITY":"0.00014130","RCS_SIZE":"LARGE","MEAN_MOTION_DDOT":"0.0000000000000","APOAPSIS":"548.213","MEAN_MOTION":"15.06393295","OBJECT_NAME":"STARLINK-1631","CLASSIFICATION_TYPE":"U","EPHEMERIS_TYPE":"0","SITE":"AFETR","MEAN_MOTION_DOT":"0.00000261","MEAN_ELEMENT_THEORY":"SGP4","TLE_LINE1":"1 46151U 20057AL  21344.89740779  .00000261  00000-0  36394-4 0  9994","DECAY_DATE":null,"GP_ID":"191456704","INCLINATION":"53.0551","PERIOD":"95.593","REF_FRAME":"TEME","CENTER_NAME":"EARTH","OBJECT_ID":"2020-057AL","COUNTRY_CODE":"US","PERIAPSIS":"546.256","MEAN_ANOMALY":"287.9557","REV_AT_EPOCH":"7275","TIME_SYSTEM":"UTC","BSTAR":"0.00003639400000"}];
